IXPE                    
1 49954U 21121A   24277.91667824  .00017214  00000+0  12655-2 0  9998
2 49954   0.2313 305.6325 0008743  97.1039 107.6321 15.00333496  5804
